*******************************************************************************
Ephemeris / WWW_USER Fri Mar  7 10:27:45 2025 Pasadena, USA      / Horizons    
*******************************************************************************
Target body name: (2018 RG5)                      {source: JPL#6}
Center body name: Earth (399)                     {source: DE441}
Center-site name: Mauna Kea
*******************************************************************************
Start time      : A.D. 2018-Sep-13 04:36:00.0000 UT      
Stop  time      : A.D. 2018-Sep-13 15:59:00.0000 UT      
Step-size       : 1 minutes
*******************************************************************************
Target pole/equ : undefined
Target radii    : undefined                                                    
Center geodetic : 204.5278, 19.8260847, 4.21024   {E-lon(deg),Lat(deg),Alt(km)}
Center cylindric: 204.5278, 6006.35451, 2151.0229 {E-lon(deg),Dxy(km),Dz(km)}
Center pole/equ : ITRF93                          {East-longitude positive}
Center radii    : 6378.137, 6378.137, 6356.752 km {Equator_a, b, pole_c}       
Target primary  : Sun
Vis. interferer : MOON (R_eq= 1737.400) km        {source: DE441}
Rel. light bend : Sun                             {source: DE441}
Rel. lght bnd GM: 1.3271E+11 km^3/s^2                                          
Small-body perts: Yes                             {source: SB441-N16}
Atmos refraction: NO (AIRLESS)
RA format       : HMS
Time format     : CAL 
Calendar mode   : Mixed Julian/Gregorian
RTS-only print  : NO       
EOP file        : eop.250306.p250602                                           
EOP coverage    : DATA-BASED 1962-JAN-20 TO 2025-MAR-06. PREDICTS-> 2025-JUN-01
Units conversion: 1 au= 149597870.700 km, c= 299792.458 km/s, 1 day= 86400.0 s 
Table cut-offs 1: Elevation (-90.0deg=NO ),Airmass (>38.000=NO), Daylight (YES)
Table cut-offs 2: Solar elongation (  0.0,180.0=NO ),Local Hour Angle( 0.0=NO )
Table cut-offs 3: RA/DEC angular rate (     0.0=NO )                           
*******************************************************************************
Initial IAU76/J2000 heliocentric ecliptic osculating elements (au, days, deg.):
  EPOCH=  2458374.5 ! 2018-Sep-13.00 (TDB)         Residual RMS= .44286        
   EC= .3970272763955992   QR= .9476094655819058   TP= 2458410.7007282218      
   OM= 172.9777515025259   W=  220.286388004559    IN= 6.065188755768435       
  Equivalent ICRF heliocentric cartesian coordinates (au, au/d):
   X= 1.011373795361920E+00  Y=-1.657289676662098E-01  Z=-6.569093016663846E-02
  VX=-6.707749535245534E-04 VY= 1.878070382659777E-02 VZ= 5.901532854039199E-03
Asteroid physical parameters (km, seconds, rotational period in hours):        
   GM= n.a.                RAD= n.a.               ROTPER= n.a.                
   H= 26.76                G= .150                 B-V= n.a.                   
                           ALBEDO= n.a.            STYP= n.a.                  
*******************************************************************************
 Date__(UT)__HR:MN     R.A._________(ICRF)_________DEC
******************************************************
$$SOE
 2018-Sep-13 12:48     23 32 18.145099 +11 52 31.26286
 2018-Sep-13 12:49     23 32 19.487756 +11 52 30.88093
 2018-Sep-13 12:50     23 32 20.831099 +11 52 30.49710
 2018-Sep-13 12:51     23 32 22.175130 +11 52 30.11137
 2018-Sep-13 12:52     23 32 23.519852 +11 52 29.72375
 2018-Sep-13 12:53     23 32 24.865266 +11 52 29.33423
 2018-Sep-13 12:54     23 32 26.211374 +11 52 28.94283
 2018-Sep-13 12:55     23 32 27.558179 +11 52 28.54954
 2018-Sep-13 12:56     23 32 28.905683 +11 52 28.15437
 2018-Sep-13 12:57     23 32 30.253887 +11 52 27.75732
 2018-Sep-13 12:58     23 32 31.602795 +11 52 27.35839
 2018-Sep-13 12:59     23 32 32.952406 +11 52 26.95759
 2018-Sep-13 13:00     23 32 34.302725 +11 52 26.55492
 2018-Sep-13 13:01     23 32 35.653753 +11 52 26.15039
 2018-Sep-13 13:02     23 32 37.005491 +11 52 25.74400
 2018-Sep-13 13:03     23 32 38.357943 +11 52 25.33574
 2018-Sep-13 13:04     23 32 39.711110 +11 52 24.92564
 2018-Sep-13 13:05     23 32 41.064993 +11 52 24.51368
 2018-Sep-13 13:06     23 32 42.419596 +11 52 24.09988
 2018-Sep-13 13:07     23 32 43.774919 +11 52 23.68423
 2018-Sep-13 13:08     23 32 45.130966 +11 52 23.26674
 2018-Sep-13 13:09     23 32 46.487738 +11 52 22.84741
 2018-Sep-13 13:10     23 32 47.845237 +11 52 22.42626
 2018-Sep-13 13:11     23 32 49.203465 +11 52 22.00327
 2018-Sep-13 13:12     23 32 50.562424 +11 52 21.57846
 2018-Sep-13 13:13     23 32 51.922116 +11 52 21.15183
 2018-Sep-13 13:14     23 32 53.282543 +11 52 20.72337
 2018-Sep-13 13:15     23 32 54.643707 +11 52 20.29311
 2018-Sep-13 13:16     23 32 56.005610 +11 52 19.86104
 2018-Sep-13 13:17     23 32 57.368253 +11 52 19.42716
 2018-Sep-13 13:18     23 32 58.731640 +11 52 18.99147
 2018-Sep-13 13:19     23 33 00.095771 +11 52 18.55399
 2018-Sep-13 13:20     23 33 01.460650 +11 52 18.11472
 2018-Sep-13 13:21     23 33 02.826276 +11 52 17.67365
 2018-Sep-13 13:22     23 33 04.192654 +11 52 17.23080
 2018-Sep-13 13:23     23 33 05.559784 +11 52 16.78617
 2018-Sep-13 13:24     23 33 06.927668 +11 52 16.33976
 2018-Sep-13 13:25     23 33 08.296309 +11 52 15.89157
 2018-Sep-13 13:26     23 33 09.665707 +11 52 15.44161
 2018-Sep-13 13:27     23 33 11.035867 +11 52 14.98989
 2018-Sep-13 13:28     23 33 12.406788 +11 52 14.53641
 2018-Sep-13 13:29     23 33 13.778473 +11 52 14.08117
 2018-Sep-13 13:30     23 33 15.150923 +11 52 13.62417
 2018-Sep-13 13:31     23 33 16.524142 +11 52 13.16543
 2018-Sep-13 13:32     23 33 17.898130 +11 52 12.70494
 2018-Sep-13 13:33     23 33 19.272889 +11 52 12.24271
 2018-Sep-13 13:34     23 33 20.648422 +11 52 11.77874
 2018-Sep-13 13:35     23 33 22.024730 +11 52 11.31304
 2018-Sep-13 13:36     23 33 23.401814 +11 52 10.84562
 2018-Sep-13 13:37     23 33 24.779678 +11 52 10.37647
 2018-Sep-13 13:38     23 33 26.158322 +11 52 09.90560
 2018-Sep-13 13:39     23 33 27.537748 +11 52 09.43301
 2018-Sep-13 13:40     23 33 28.917959 +11 52 08.95872
 2018-Sep-13 13:41     23 33 30.298956 +11 52 08.48272
 2018-Sep-13 13:42     23 33 31.680741 +11 52 08.00501
 2018-Sep-13 13:43     23 33 33.063315 +11 52 07.52561
 2018-Sep-13 13:44     23 33 34.446681 +11 52 07.04452
 2018-Sep-13 13:45     23 33 35.830840 +11 52 06.56174
 2018-Sep-13 13:46     23 33 37.215794 +11 52 06.07728
 2018-Sep-13 13:47     23 33 38.601544 +11 52 05.59114
 2018-Sep-13 13:48     23 33 39.988094 +11 52 05.10332
 2018-Sep-13 13:49     23 33 41.375443 +11 52 04.61383
 2018-Sep-13 13:50     23 33 42.763595 +11 52 04.12268
 2018-Sep-13 13:51     23 33 44.152550 +11 52 03.62987
 2018-Sep-13 13:52     23 33 45.542311 +11 52 03.13540
 2018-Sep-13 13:53     23 33 46.932880 +11 52 02.63928
 2018-Sep-13 13:54     23 33 48.324257 +11 52 02.14152
 2018-Sep-13 13:55     23 33 49.716445 +11 52 01.64211
 2018-Sep-13 13:56     23 33 51.109445 +11 52 01.14106
 2018-Sep-13 13:57     23 33 52.503259 +11 52 00.63839
 2018-Sep-13 13:58     23 33 53.897889 +11 52 00.13408
 2018-Sep-13 13:59     23 33 55.293337 +11 51 59.62816
 2018-Sep-13 14:00     23 33 56.689604 +11 51 59.12061
 2018-Sep-13 14:01     23 33 58.086691 +11 51 58.61146
 2018-Sep-13 14:02     23 33 59.484601 +11 51 58.10069
 2018-Sep-13 14:03     23 34 00.883335 +11 51 57.58832
 2018-Sep-13 14:04     23 34 02.282895 +11 51 57.07436
 2018-Sep-13 14:05     23 34 03.683283 +11 51 56.55880
 2018-Sep-13 14:06     23 34 05.084499 +11 51 56.04165
 2018-Sep-13 14:07     23 34 06.486547 +11 51 55.52292
 2018-Sep-13 14:08     23 34 07.889426 +11 51 55.00261
 2018-Sep-13 14:09     23 34 09.293140 +11 51 54.48072
 2018-Sep-13 14:10     23 34 10.697689 +11 51 53.95727
 2018-Sep-13 14:11     23 34 12.103075 +11 51 53.43226
 2018-Sep-13 14:12     23 34 13.509300 +11 51 52.90568
 2018-Sep-13 14:13     23 34 14.916365 +11 51 52.37756
 2018-Sep-13 14:14     23 34 16.324272 +11 51 51.84788
 2018-Sep-13 14:15     23 34 17.733022 +11 51 51.31667
 2018-Sep-13 14:16     23 34 19.142618 +11 51 50.78391
 2018-Sep-13 14:17     23 34 20.553060 +11 51 50.24963
 2018-Sep-13 14:18     23 34 21.964350 +11 51 49.71381
 2018-Sep-13 14:19     23 34 23.376490 +11 51 49.17647
 2018-Sep-13 14:20     23 34 24.789481 +11 51 48.63762
 2018-Sep-13 14:21     23 34 26.203325 +11 51 48.09725
 2018-Sep-13 14:22     23 34 27.618023 +11 51 47.55538
 2018-Sep-13 14:23     23 34 29.033577 +11 51 47.01201
 2018-Sep-13 14:24     23 34 30.449988 +11 51 46.46714
 2018-Sep-13 14:25     23 34 31.867258 +11 51 45.92078
 2018-Sep-13 14:26     23 34 33.285388 +11 51 45.37293
 2018-Sep-13 14:27     23 34 34.704379 +11 51 44.82361
 2018-Sep-13 14:28     23 34 36.124234 +11 51 44.27281
 2018-Sep-13 14:29     23 34 37.544953 +11 51 43.72054
 2018-Sep-13 14:30     23 34 38.966539 +11 51 43.16681
 2018-Sep-13 14:31     23 34 40.388992 +11 51 42.61162
 2018-Sep-13 14:32     23 34 41.812314 +11 51 42.05497
 2018-Sep-13 14:33     23 34 43.236506 +11 51 41.49688
 2018-Sep-13 14:34     23 34 44.661570 +11 51 40.93735
 2018-Sep-13 14:35     23 34 46.087507 +11 51 40.37638
 2018-Sep-13 14:36     23 34 47.514319 +11 51 39.81398
 2018-Sep-13 14:37     23 34 48.942007 +11 51 39.25015
 2018-Sep-13 14:38     23 34 50.370572 +11 51 38.68490
 2018-Sep-13 14:39     23 34 51.800016 +11 51 38.11824
 2018-Sep-13 14:40     23 34 53.230340 +11 51 37.55017
 2018-Sep-13 14:41     23 34 54.661546 +11 51 36.98070
 2018-Sep-13 14:42     23 34 56.093634 +11 51 36.40982
 2018-Sep-13 14:43     23 34 57.526607 +11 51 35.83756
 2018-Sep-13 14:44     23 34 58.960465 +11 51 35.26391
 2018-Sep-13 14:45     23 35 00.395210 +11 51 34.68888
 2018-Sep-13 14:46     23 35 01.830843 +11 51 34.11247
 2018-Sep-13 14:47     23 35 03.267366 +11 51 33.53470
 2018-Sep-13 14:48     23 35 04.704779 +11 51 32.95556
 2018-Sep-13 14:49     23 35 06.143085 +11 51 32.37506
 2018-Sep-13 14:50     23 35 07.582284 +11 51 31.79321
